*******************************************************************************
Ephemeris / WWW_USER Tue Mar 27 22:14:15 2018 Pasadena, USA      / Horizons    
*******************************************************************************
Target body name: Jupiter (599)                   {source: jup341}
Center body name: Solar System Barycenter (0)     {source: DE431mx}
Center-site name: BODY CENTER
*******************************************************************************
Start time      : A.D. 2018-Feb-08 00:00:00.0000 TDB
Stop  time      : A.D. 2028-Feb-08 00:00:00.0000 TDB
Step-size       : 7200 minutes
*******************************************************************************
Center geodetic : 0.00000000,0.00000000,0.0000000 {E-lon(deg),Lat(deg),Alt(km)}
Center cylindric: 0.00000000,0.00000000,0.0000000 {E-lon(deg),Dxy(km),Dz(km)}
Center radii    : (undefined)                                                  
Output units    : AU-D                                                         
Output type     : GEOMETRIC cartesian states
Output format   : 2 (position and velocity)
Reference frame : ICRF/J2000.0                                                 
Coordinate systm: Ecliptic and Mean Equinox of Reference Epoch                 
*******************************************************************************
JDTDB
   X     Y     Z
   VX    VY    VZ
*******************************************************************************
$$SOE
2461517.500000000 = A.D. 2027-Apr-22 00:00:00.0000 TDB 
  -4.507709085096561E+00  2.907937922990164E+00  8.882351963408126E-02
  -4.181965921571746E-03 -5.987823541582581E-03  1.184385919867600E-04
2461522.500000000 = A.D. 2027-Apr-27 00:00:00.0000 TDB 
  -4.528509938406944E+00  2.877928267834363E+00  8.941356010560962E-02
  -4.137988224972898E-03 -6.016108816428045E-03  1.175780282627248E-04
2461527.500000000 = A.D. 2027-May-02 00:00:00.0000 TDB 
  -4.549091809724766E+00  2.847783183329894E+00  8.999944529809022E-02
  -4.095546045944885E-03 -6.042566883244797E-03  1.167363941762381E-04
2461532.500000000 = A.D. 2027-May-07 00:00:00.0000 TDB 
  -4.569456943855306E+00  2.817501770613194E+00  9.058101599615102E-02
  -4.051641163746247E-03 -6.069131927725701E-03  1.159045454969196E-04
2461537.500000000 = A.D. 2027-May-12 00:00:00.0000 TDB 
  -4.589605895139812E+00  2.787083502029139E+00  9.115816782604295E-02
  -4.006695349731576E-03 -6.096655496768030E-03  1.150277990277243E-04
2461542.500000000 = A.D. 2027-May-17 00:00:00.0000 TDB 
  -4.609534704390042E+00  2.756533414753607E+00  9.173103973694760E-02
  -3.963463620227813E-03 -6.124159610835590E-03  1.141076189253119E-04
2461547.500000000 = A.D. 2027-May-22 00:00:00.0000 TDB 
  -4.629242163412679E+00  2.725853076246533E+00  9.229960859311097E-02
  -3.920278091865853E-03 -6.149331160154431E-03  1.132565853823592E-04
2461552.500000000 = A.D. 2027-May-27 00:00:00.0000 TDB 
  -4.648731380264678E+00  2.695041003625528E+00  9.286368925650949E-02
  -3.876060444961668E-03 -6.175020184269073E-03  1.123820766564800E-04
2461557.500000000 = A.D. 2027-Jun-01 00:00:00.0000 TDB 
  -4.667999266187282E+00  2.664099598992504E+00  9.342333113045796E-02
  -3.830946131149042E-03 -6.201142812919056E-03  1.114873804663518E-04
2461562.500000000 = A.D. 2027-Jun-06 00:00:00.0000 TDB 
  -4.687042570385797E+00  2.633033617731605E+00  9.397864663485238E-02
  -3.786911288850380E-03 -6.225210732797727E-03  1.106283072260356E-04
2461567.500000000 = A.D. 2027-Jun-11 00:00:00.0000 TDB 
  -4.705865241821699E+00  2.601841333226916E+00  9.452942673258295E-02
  -3.741936103060343E-03 -6.250663495142612E-03  1.097231704529651E-04
2461572.500000000 = A.D. 2027-Jun-16 00:00:00.0000 TDB 
  -4.724465303435559E+00  2.570523581380674E+00  9.507565741833585E-02
  -3.696416955513221E-03 -6.276393603150679E-03  1.087924199471927E-04
2461577.500000000 = A.D. 2027-Jun-21 00:00:00.0000 TDB 
  -4.742838623816567E+00  2.539086069732547E+00  9.561749633950936E-02
  -3.653051399673955E-03 -6.300278760606889E-03  1.078755693155867E-04
2461582.500000000 = A.D. 2027-Jun-26 00:00:00.0000 TDB 
  -4.760987196207874E+00  2.507527719432094E+00  9.615478613251380E-02
  -3.608073130496789E-03 -6.323258265098200E-03  1.070064781667068E-04
2461587.500000000 = A.D. 2027-Jul-01 00:00:00.0000 TDB 
  -4.778912095976973E+00  2.475848286086439E+00  9.668742468100590E-02
  -3.561850050192576E-03 -6.347016985661346E-03  1.061020906551511E-04
2461592.500000000 = A.D. 2027-Jul-06 00:00:00.0000 TDB 
  -4.796609438253307E+00  2.444052298285114E+00  9.721553733042740E-02
  -3.516356188904663E-03 -6.371095338413416E-03  1.051590718891049E-04
2461597.500000000 = A.D. 2027-Jul-11 00:00:00.0000 TDB 
  -4.814078136592054E+00  2.412141849431877E+00  9.773911851028488E-02
  -3.471182131638921E-03 -6.393342574959060E-03  1.042603343702009E-04
2461602.500000000 = A.D. 2027-Jul-16 00:00:00.0000 TDB 
  -4.831321740550813E+00  2.380115634063071E+00  9.825798590597590E-02
  -3.425619301553237E-03 -6.416826503010884E-03  1.033061150891391E-04
2461607.500000000 = A.D. 2027-Jul-21 00:00:00.0000 TDB 
  -4.848336507611326E+00  2.347976008435456E+00  9.877220179649290E-02
  -3.379711905782485E-03 -6.439876295979177E-03  1.023537826359763E-04
2461612.500000000 = A.D. 2027-Jul-26 00:00:00.0000 TDB 
  -4.865119513062524E+00  2.315727603626846E+00  9.928186844605166E-02
  -3.334946432102963E-03 -6.460322957058250E-03  1.014570545286772E-04
2461617.500000000 = A.D. 2027-Jul-31 00:00:00.0000 TDB 
  -4.881674968150423E+00  2.283368360377317E+00  9.978676691515814E-02
  -3.288188308262861E-03 -6.481973483750380E-03  1.005380123651337E-04
2461622.500000000 = A.D. 2027-Aug-05 00:00:00.0000 TDB 
  -4.898001084669585E+00  2.250899653640744E+00  1.002869006874817E-01
  -3.240815792911099E-03 -6.504288247175482E-03  9.957824200334957E-05
2461627.500000000 = A.D. 2027-Aug-10 00:00:00.0000 TDB 
  -4.914094011834511E+00  2.218326937087204E+00  1.007824176271245E-01
  -3.195609951799851E-03 -6.525671343441091E-03  9.860283843570741E-05
2461632.500000000 = A.D. 2027-Aug-15 00:00:00.0000 TDB 
  -4.929955454626858E+00  2.185649464336445E+00  1.012731801381087E-01
  -3.149484228454453E-03 -6.545940848338511E-03  9.767035264727507E-05
2461637.500000000 = A.D. 2027-Aug-20 00:00:00.0000 TDB 
  -4.945586803306647E+00  2.152867212938630E+00  1.017590900854993E-01
  -3.102870152100230E-03 -6.566741950400422E-03  9.670232978708325E-05
2461642.500000000 = A.D. 2027-Aug-25 00:00:00.0000 TDB 
  -4.960983838286519E+00  2.119984052533259E+00  1.022402602518540E-01
  -3.056332007126276E-03 -6.586960256450997E-03  9.573933705395743E-05
2461647.500000000 = A.D. 2027-Aug-30 00:00:00.0000 TDB 
  -4.976145880866239E+00  2.087002320296803E+00  1.027166871950099E-01
  -3.009653313649309E-03 -6.605271356547552E-03  9.482840757635465E-05
2461652.500000000 = A.D. 2027-Sep-04 00:00:00.0000 TDB 
  -4.991077075601755E+00  2.053920696067655E+00  1.031881841715179E-01
  -2.962061876365171E-03 -6.625812538519194E-03  9.383721149301559E-05
2461657.500000000 = A.D. 2027-Sep-09 00:00:00.0000 TDB 
  -5.005773278044272E+00  2.020741906087203E+00  1.036548362615933E-01
  -2.914703892221497E-03 -6.646106390121880E-03  9.283030441920274E-05
2461662.500000000 = A.D. 2027-Sep-14 00:00:00.0000 TDB 
  -5.020231838123444E+00  1.987470554980201E+00  1.041167412561243E-01
  -2.869261684220008E-03 -6.663996264438820E-03  9.186296773266574E-05
2461667.500000000 = A.D. 2027-Sep-19 00:00:00.0000 TDB 
  -5.034456753227225E+00  1.954104409207084E+00  1.045736830959752E-01
  -2.821836028887605E-03 -6.682269190204950E-03  9.090317497556079E-05
2461672.500000000 = A.D. 2027-Sep-24 00:00:00.0000 TDB 
  -5.048446437815249E+00  1.920645076978687E+00  1.050256707773849E-01
  -2.773777960522619E-03 -6.700658168943862E-03  8.992206859021209E-05
2461677.500000000 = A.D. 2027-Sep-29 00:00:00.0000 TDB 
  -5.062197323896166E+00  1.887097379431947E+00  1.054728303970485E-01
  -2.726788819716541E-03 -6.718392496391698E-03  8.893488928292566E-05
2461682.500000000 = A.D. 2027-Oct-04 00:00:00.0000 TDB 
  -5.075711243622407E+00  1.853461100233757E+00  1.059150435968052E-01
  -2.678866424041252E-03 -6.735482665716376E-03  8.797096522424904E-05
2461687.500000000 = A.D. 2027-Oct-09 00:00:00.0000 TDB 
  -5.088990027258595E+00  1.819736525418419E+00  1.063522192247058E-01
  -2.631182613401476E-03 -6.753975596706699E-03  8.693239344881915E-05
2461692.500000000 = A.D. 2027-Oct-14 00:00:00.0000 TDB 
  -5.102028818343117E+00  1.785927253202362E+00  1.067844755709505E-01
  -2.584025592423110E-03 -6.771225683740618E-03  8.591579776479180E-05
2461697.500000000 = A.D. 2027-Oct-19 00:00:00.0000 TDB 
  -5.114827222980921E+00  1.752035743452212E+00  1.072118085699554E-01
  -2.537079469104754E-03 -6.785964241616521E-03  8.496788967810692E-05
2461702.500000000 = A.D. 2027-Oct-24 00:00:00.0000 TDB 
  -5.127389680078048E+00  1.718060311621776E+00  1.076340202501084E-01
  -2.488343995177229E-03 -6.802692348204666E-03  8.396423079848891E-05
2461707.500000000 = A.D. 2027-Oct-29 00:00:00.0000 TDB 
  -5.139712012967469E+00  1.684003952037496E+00  1.080512077051357E-01
  -2.439493153699323E-03 -6.819205356551321E-03  8.294646198340494E-05
2461712.500000000 = A.D. 2027-Nov-03 00:00:00.0000 TDB 
  -5.151792122614407E+00  1.649871152352115E+00  1.084634588631022E-01
  -2.392459389601327E-03 -6.834383583415050E-03  8.193446769641895E-05
2461717.500000000 = A.D. 2027-Nov-08 00:00:00.0000 TDB 
  -5.163633754332717E+00  1.615660004135728E+00  1.088705783566437E-01
  -2.344015768483451E-03 -6.850000115730867E-03  8.091810108117322E-05
2461722.500000000 = A.D. 2027-Nov-13 00:00:00.0000 TDB 
  -5.175235426546592E+00  1.581372409085499E+00  1.092725846544281E-01
  -2.295930412831815E-03 -6.865455828554228E-03  7.987683528170207E-05
